[{"OBJECT_NAME":"GSAT0218 (GALILEO 22)","OBJECT_ID":"2017-079D","EPOCH":"2026-04-02T11:48:23.342112","MEAN_MOTION":1.70474722,"ECCENTRICITY":0.00024672,"INCLINATION":55.0976,"RA_OF_ASC_NODE":223.5832,"ARG_OF_PERICENTER":285.5719,"MEAN_ANOMALY":74.346,"EPHEMERIS_TYPE":0,"CLASSIFICATION_TYPE":"U","NORAD_CAT_ID":43058,"ELEMENT_SET_NO":999,"REV_AT_EPOCH":5172,"BSTAR":0,"MEAN_MOTION_DOT":-1.8e-7,"MEAN_MOTION_DDOT":0},{"OBJECT_NAME":"GOES 17","OBJECT_ID":"2018-022A","EPOCH":"2026-04-04T05:30:58.754016","MEAN_MOTION":1.00271726,"ECCENTRICITY":0.0001221,"INCLINATION":0.748,"RA_OF_ASC_NODE":86.8133,"ARG_OF_PERICENTER":256.8969,"MEAN_ANOMALY":202.0833,"EPHEMERIS_TYPE":0,"CLASSIFICATION_TYPE":"U","NORAD_CAT_ID":43226,"ELEMENT_SET_NO":999,"REV_AT_EPOCH":2968,"BSTAR":0,"MEAN_MOTION_DOT":-1.83e-6,"MEAN_MOTION_DDOT":0},{"OBJECT_NAME":"GSAT0221 (GALILEO 25)","OBJECT_ID":"2018-060A","EPOCH":"2026-03-31T01:10:55.184448","MEAN_MOTION":1.70475638,"ECCENTRICITY":0.0004721,"INCLINATION":57.1934,"RA_OF_ASC_NODE":343.8925,"ARG_OF_PERICENTER":315.0021,"MEAN_ANOMALY":45.0002,"EPHEMERIS_TYPE":0,"CLASSIFICATION_TYPE":"U","NORAD_CAT_ID":43564,"ELEMENT_SET_NO":999,"REV_AT_EPOCH":4783,"BSTAR":0,"MEAN_MOTION_DOT":-9.9e-7,"MEAN_MOTION_DDOT":0},{"OBJECT_NAME":"GSAT0222 (GALILEO 26)","OBJECT_ID":"2018-060B","EPOCH":"2026-04-03T04:50:28.857696","MEAN_MOTION":1.70475247,"ECCENTRICITY":0.0002935,"INCLINATION":57.1971,"RA_OF_ASC_NODE":343.8104,"ARG_OF_PERICENTER":285.5245,"MEAN_ANOMALY":74.4895,"EPHEMERIS_TYPE":0,"CLASSIFICATION_TYPE":"U","NORAD_CAT_ID":43565,"ELEMENT_SET_NO":999,"REV_AT_EPOCH":4793,"BSTAR":0,"MEAN_MOTION_DOT":-9.6e-7,"MEAN_MOTION_DDOT":0},{"OBJECT_NAME":"GSAT0219 (GALILEO 23)","OBJECT_ID":"2018-060C","EPOCH":"2026-04-03T10:08:42.839520","MEAN_MOTION":1.70475597,"ECCENTRICITY":0.00041268,"INCLINATION":57.1958,"RA_OF_ASC_NODE":343.8063,"ARG_OF_PERICENTER":326.5854,"MEAN_ANOMALY":33.4353,"EPHEMERIS_TYPE":0,"CLASSIFICATION_TYPE":"U","NORAD_CAT_ID":43566,"ELEMENT_SET_NO":999,"REV_AT_EPOCH":4791,"BSTAR":0,"MEAN_MOTION_DOT":-9.6e-7,"MEAN_MOTION_DDOT":0},{"OBJECT_NAME":"GSAT0220 (GALILEO 24)","OBJECT_ID":"2018-060D","EPOCH":"2026-04-02T11:17:30.089760","MEAN_MOTION":1.70475758,"ECCENTRICITY":0.00046012,"INCLINATION":57.1953,"RA_OF_ASC_NODE":343.8319,"ARG_OF_PERICENTER":318.6748,"MEAN_ANOMALY":41.336,"EPHEMERIS_TYPE":0,"CLASSIFICATION_TYPE":"U","NORAD_CAT_ID":43567,"ELEMENT_SET_NO":999,"REV_AT_EPOCH":4788,"BSTAR":0,"MEAN_MOTION_DOT":-9.7e-7,"MEAN_MOTION_DDOT":0},{"OBJECT_NAME":"BEIDOU-3 M13","OBJECT_ID":"2018-072A","EPOCH":"2026-04-02T06:54:54.019872","MEAN_MOTION":1.86230927,"ECCENTRICITY":0.00091635,"INCLINATION":56.5605,"RA_OF_ASC_NODE":65.1621,"ARG_OF_PERICENTER":313.4238,"MEAN_ANOMALY":46.4741,"EPHEMERIS_TYPE":0,"CLASSIFICATION_TYPE":"U","NORAD_CAT_ID":43622,"ELEMENT_SET_NO":999,"REV_AT_EPOCH":5124,"BSTAR":0,"MEAN_MOTION_DOT":-4.2e-7,"MEAN_MOTION_DDOT":0},{"OBJECT_NAME":"BEIDOU-3 M14","OBJECT_ID":"2018-072B","EPOCH":"2026-04-03T05:27:34.263360","MEAN_MOTION":1.86231085,"ECCENTRICITY":0.00069067,"INCLINATION":56.5633,"RA_OF_ASC_NODE":65.1252,"ARG_OF_PERICENTER":335.0093,"MEAN_ANOMALY":24.9295,"EPHEMERIS_TYPE":0,"CLASSIFICATION_TYPE":"U","NORAD_CAT_ID":43623,"ELEMENT_SET_NO":999,"REV_AT_EPOCH":5125,"BSTAR":0,"MEAN_MOTION_DOT":-4.4e-7,"MEAN_MOTION_DDOT":0},{"OBJECT_NAME":"GPS BIII-1","OBJECT_ID":"2018-109A","EPOCH":"2026-04-03T11:11:03.683040","MEAN_MOTION":2.00558332,"ECCENTRICITY":0.00379702,"INCLINATION":55.6359,"RA_OF_ASC_NODE":95.1326,"ARG_OF_PERICENTER":198.8705,"MEAN_ANOMALY":333.4014,"EPHEMERIS_TYPE":0,"CLASSIFICATION_TYPE":"U","NORAD_CAT_ID":43873,"ELEMENT_SET_NO":999,"REV_AT_EPOCH":5357,"BSTAR":0,"MEAN_MOTION_DOT":1.0e-7,"MEAN_MOTION_DDOT":0},{"OBJECT_NAME":"METEOR-M2 2","OBJECT_ID":"2019-038A","EPOCH":"2026-04-04T06:35:51.797184","MEAN_MOTION":14.24345909,"ECCENTRICITY":6.214e-5,"INCLINATION":98.9115,"RA_OF_ASC_NODE":80.4849,"ARG_OF_PERICENTER":168.1844,"MEAN_ANOMALY":191.9349,"EPHEMERIS_TYPE":0,"CLASSIFICATION_TYPE":"U","NORAD_CAT_ID":44387,"ELEMENT_SET_NO":999,"REV_AT_EPOCH":35077,"BSTAR":0.00023912875,"MEAN_MOTION_DOT":5.07e-6,"MEAN_MOTION_DDOT":0},{"OBJECT_NAME":"GPS BIII-2","OBJECT_ID":"2019-056A","EPOCH":"2026-04-04T02:24:28.715040","MEAN_MOTION":2.00569043,"ECCENTRICITY":0.00587403,"INCLINATION":55.6705,"RA_OF_ASC_NODE":334.0885,"ARG_OF_PERICENTER":197.599,"MEAN_ANOMALY":334.0807,"EPHEMERIS_TYPE":0,"CLASSIFICATION_TYPE":"U","NORAD_CAT_ID":44506,"ELEMENT_SET_NO":999,"REV_AT_EPOCH":4858,"BSTAR":0,"MEAN_MOTION_DOT":-9.1e-7,"MEAN_MOTION_DDOT":0},{"OBJECT_NAME":"BEIDOU-3 M24","OBJECT_ID":"2019-061A","EPOCH":"2026-04-02T12:45:47.064672","MEAN_MOTION":1.86228823,"ECCENTRICITY":0.00081878,"INCLINATION":54.3964,"RA_OF_ASC_NODE":185.2791,"ARG_OF_PERICENTER":13.7537,"MEAN_ANOMALY":346.3,"EPHEMERIS_TYPE":0,"CLASSIFICATION_TYPE":"U","NORAD_CAT_ID":44542,"ELEMENT_SET_NO":999,"REV_AT_EPOCH":4438,"BSTAR":0,"MEAN_MOTION_DOT":9.0e-8,"MEAN_MOTION_DDOT":0},{"OBJECT_NAME":"BEIDOU-3 M23","OBJECT_ID":"2019-061B","EPOCH":"2026-04-02T03:48:48.819168","MEAN_MOTION":1.86227494,"ECCENTRICITY":0.00048672,"INCLINATION":54.3946,"RA_OF_ASC_NODE":185.2604,"ARG_OF_PERICENTER":359.4431,"MEAN_ANOMALY":22.6796,"EPHEMERIS_TYPE":0,"CLASSIFICATION_TYPE":"U","NORAD_CAT_ID":44543,"ELEMENT_SET_NO":999,"REV_AT_EPOCH":4438,"BSTAR":0,"MEAN_MOTION_DOT":5.0e-8,"MEAN_MOTION_DDOT":0},{"OBJECT_NAME":"BEIDOU-3 M22","OBJECT_ID":"2019-078A","EPOCH":"2026-04-03T23:33:28.589760","MEAN_MOTION":1.86227146,"ECCENTRICITY":0.00075463,"INCLINATION":54.0035,"RA_OF_ASC_NODE":302.4378,"ARG_OF_PERICENTER":42.801,"MEAN_ANOMALY":317.2773,"EPHEMERIS_TYPE":0,"CLASSIFICATION_TYPE":"U","NORAD_CAT_ID":44793,"ELEMENT_SET_NO":999,"REV_AT_EPOCH":4326,"BSTAR":0,"MEAN_MOTION_DOT":-6.3e-7,"MEAN_MOTION_DDOT":0},{"OBJECT_NAME":"BEIDOU-3 M21","OBJECT_ID":"2019-078B","EPOCH":"2026-04-03T14:02:01.747680","MEAN_MOTION":1.8622766,"ECCENTRICITY":0.00053542,"INCLINATION":53.9768,"RA_OF_ASC_NODE":302.4147,"ARG_OF_PERICENTER":38.8071,"MEAN_ANOMALY":321.2518,"EPHEMERIS_TYPE":0,"CLASSIFICATION_TYPE":"U","NORAD_CAT_ID":44794,"ELEMENT_SET_NO":999,"REV_AT_EPOCH":4326,"BSTAR":0,"MEAN_MOTION_DOT":-6.3e-7,"MEAN_MOTION_DDOT":0},{"OBJECT_NAME":"ELEKTRO-L 3","OBJECT_ID":"2019-095A","EPOCH":"2026-04-04T02:52:43.933152","MEAN_MOTION":1.00272242,"ECCENTRICITY":0.00013936,"INCLINATION":0.0738,"RA_OF_ASC_NODE":60.693,"ARG_OF_PERICENTER":302.757,"MEAN_ANOMALY":308.1061,"EPHEMERIS_TYPE":0,"CLASSIFICATION_TYPE":"U","NORAD_CAT_ID":44903,"ELEMENT_SET_NO":999,"REV_AT_EPOCH":2296,"BSTAR":0,"MEAN_MOTION_DOT":-9.7e-7,"MEAN_MOTION_DDOT":0},{"OBJECT_NAME":"GPS BIII-3","OBJECT_ID":"2020-041A","EPOCH":"2026-04-03T16:26:38.384736","MEAN_MOTION":2.00560321,"ECCENTRICITY":0.00617385,"INCLINATION":56.6249,"RA_OF_ASC_NODE":31.8341,"ARG_OF_PERICENTER":205.125,"MEAN_ANOMALY":327.9792,"EPHEMERIS_TYPE":0,"CLASSIFICATION_TYPE":"U","NORAD_CAT_ID":45854,"ELEMENT_SET_NO":999,"REV_AT_EPOCH":4254,"BSTAR":0,"MEAN_MOTION_DOT":-9.3e-7,"MEAN_MOTION_DDOT":0}]
